[
    {
        "Altitude(m)": 571782.6999975094,
        "Argument of Periapsis(deg)": 0.006622991110713501,
        "Eccentricity": 0.0,
        "Inclination(deg)": 53.0,
        "Latitude(deg)": -52.990418648448774,
        "Longitude(deg)": 80.40289486207696,
        "Mean Anomaly(deg)": -86.27200713242235,
        "RAAN(deg)": 264.990143368528,
        "Satellite Name": "Starlink Shell 1 1182",
        "Satellite Number": 1182,
        "Semi-Major Axis(m)": 6931778.249405717,
        "Time(s)": 190
    },
    {
        "Altitude(m)": 571760.2172815863,
        "Argument of Periapsis(deg)": 0.0069715695902247375,
        "Eccentricity": 0.0,
        "Inclination(deg)": 53.0,
        "Latitude(deg)": -52.93227549443782,
        "Longitude(deg)": 81.39132694310014,
        "Mean Anomaly(deg)": -85.64517592886573,
        "RAAN(deg)": 264.9896245984506,
        "Satellite Name": "Starlink Shell 1 1182",
        "Satellite Number": 1182,
        "Semi-Major Axis(m)": 6931778.249405717,
        "Time(s)": 200
    },
    {
        "Altitude(m)": 571734.2870540658,
        "Argument of Periapsis(deg)": 0.007320148069735974,
        "Eccentricity": 0.0,
        "Inclination(deg)": 53.0,
        "Latitude(deg)": -52.865238311843136,
        "Longitude(deg)": 82.37679785630996,
        "Mean Anomaly(deg)": -85.01834472530905,
        "RAAN(deg)": 264.9891058283731,
        "Satellite Name": "Starlink Shell 1 1182",
        "Satellite Number": 1182,
        "Semi-Major Axis(m)": 6931778.249405717,
        "Time(s)": 210
    },
    {
        "Altitude(m)": 571704.9196420134,
        "Argument of Periapsis(deg)": 0.007668726549247212,
        "Eccentricity": 0.0,
        "Inclination(deg)": 53.0,
        "Latitude(deg)": -52.789355529854525,
        "Longitude(deg)": 83.35890639896238,
        "Mean Anomaly(deg)": -84.39151352175226,
        "RAAN(deg)": 264.9885870582956,
        "Satellite Name": "Starlink Shell 1 1182",
        "Satellite Number": 1182,
        "Semi-Major Axis(m)": 6931778.249405717,
        "Time(s)": 220
    },
    {
        "Altitude(m)": 571672.1267431988,
        "Argument of Periapsis(deg)": 0.00801730502875845,
        "Eccentricity": 0.0,
        "Inclination(deg)": 53.0,
        "Latitude(deg)": -52.70468155072899,
        "Longitude(deg)": 84.33726097918674,
        "Mean Anomaly(deg)": -83.76468231819554,
        "RAAN(deg)": 264.98806828821813,
        "Satellite Name": "Starlink Shell 1 1182",
        "Satellite Number": 1182,
        "Semi-Major Axis(m)": 6931778.249405717,
        "Time(s)": 230
    },
    {
        "Altitude(m)": 571635.9214210759,
        "Argument of Periapsis(deg)": 0.008365883508269684,
        "Eccentricity": 0.0,
        "Inclination(deg)": 53.0,
        "Latitude(deg)": -52.61127656166436,
        "Longitude(deg)": 85.31148110848437,
        "Mean Anomaly(deg)": -83.13785111463886,
        "RAAN(deg)": 264.98754951814067,
        "Satellite Name": "Starlink Shell 1 1182",
        "Satellite Number": 1182,
        "Semi-Major Axis(m)": 6931778.249405717,
        "Time(s)": 240
    },
    {
        "Altitude(m)": 571596.3180990875,
        "Argument of Periapsis(deg)": 0.008714461987780921,
        "Eccentricity": 0.0,
        "Inclination(deg)": 53.0,
        "Latitude(deg)": -52.50920632971171,
        "Longitude(deg)": 86.2811973098331,
        "Mean Anomaly(deg)": -82.51101991108209,
        "RAAN(deg)": 264.9870307480632,
        "Satellite Name": "Starlink Shell 1 1182",
        "Satellite Number": 1182,
        "Semi-Major Axis(m)": 6931778.249405717,
        "Time(s)": 250
    },
    {
        "Altitude(m)": 571553.332554478,
        "Argument of Periapsis(deg)": 0.009063040467292158,
        "Eccentricity": 0.0,
        "Inclination(deg)": 53.0,
        "Latitude(deg)": -52.3985419813135,
        "Longitude(deg)": 87.2460524625517,
        "Mean Anomaly(deg)": -81.88418870752537,
        "RAAN(deg)": 264.98651197798574,
        "Satellite Name": "Starlink Shell 1 1182",
        "Satellite Number": 1182,
        "Semi-Major Axis(m)": 6931778.249405717,
        "Time(s)": 260
    },
    {
        "Altitude(m)": 571506.9819114108,
        "Argument of Periapsis(deg)": 0.009411618946803396,
        "Eccentricity": 0.0,
        "Inclination(deg)": 53.0,
        "Latitude(deg)": -52.27935976812138,
        "Longitude(deg)": 88.20570306747993,
        "Mean Anomaly(deg)": -81.25735750396868,
        "RAAN(deg)": 264.9859932079082,
        "Satellite Name": "Starlink Shell 1 1182",
        "Satellite Number": 1182,
        "Semi-Major Axis(m)": 6931778.249405717,
        "Time(s)": 270
    },
    {
        "Altitude(m)": 571457.2846336233,
        "Argument of Periapsis(deg)": 0.009760197426314633,
        "Eccentricity": 0.0,
        "Inclination(deg)": 53.0,
        "Latitude(deg)": -52.151740820891284,
        "Longitude(deg)": 89.15981891623083,
        "Mean Anomaly(deg)": -80.630526300412,
        "RAAN(deg)": 264.98547443783076,
        "Satellite Name": "Starlink Shell 1 1182",
        "Satellite Number": 1182,
        "Semi-Major Axis(m)": 6931778.249405717,
        "Time(s)": 280
    },
    {
        "Altitude(m)": 571404.2605163858,
        "Argument of Periapsis(deg)": 0.01010877590582587,
        "Eccentricity": 0.0,
        "Inclination(deg)": 53.0,
        "Latitude(deg)": -52.01577089303864,
        "Longitude(deg)": 90.10808418986453,
        "Mean Anomaly(deg)": -80.00369509685518,
        "RAAN(deg)": 264.9849556677533,
        "Satellite Name": "Starlink Shell 1 1182",
        "Satellite Number": 1182,
        "Semi-Major Axis(m)": 6931778.249405717,
        "Time(s)": 290
    },
    {
        "Altitude(m)": 571347.9306779465,
        "Argument of Periapsis(deg)": 0.010457354385337106,
        "Eccentricity": 0.0,
        "Inclination(deg)": 53.0,
        "Latitude(deg)": -51.87154009584998,
        "Longitude(deg)": 91.05019847127575,
        "Mean Anomaly(deg)": -79.3768638932985,
        "RAAN(deg)": 264.98443689767583,
        "Satellite Name": "Starlink Shell 1 1182",
        "Satellite Number": 1182,
        "Semi-Major Axis(m)": 6931778.249405717,
        "Time(s)": 300
    },
    {
        "Altitude(m)": 571288.3175503925,
        "Argument of Periapsis(deg)": 0.010805932864848343,
        "Eccentricity": 0.0,
        "Inclination(deg)": 53.0,
        "Latitude(deg)": -51.71914262695933,
        "Longitude(deg)": 91.98587615969576,
        "Mean Anomaly(deg)": -78.75003268974184,
        "RAAN(deg)": 264.9839181275983,
        "Satellite Name": "Starlink Shell 1 1182",
        "Satellite Number": 1182,
        "Semi-Major Axis(m)": 6931778.249405717,
        "Time(s)": 310
    },
    {
        "Altitude(m)": 571225.4448699297,
        "Argument of Periapsis(deg)": 0.01115451134435958,
        "Eccentricity": 0.0,
        "Inclination(deg)": 53.0,
        "Latitude(deg)": -51.55867649389278,
        "Longitude(deg)": 92.9148473132432,
        "Mean Anomaly(deg)": -78.1232014861851,
        "RAAN(deg)": 264.98339935752085,
        "Satellite Name": "Starlink Shell 1 1182",
        "Satellite Number": 1182,
        "Semi-Major Axis(m)": 6931778.249405717,
        "Time(s)": 320
    },
    {
        "Altitude(m)": 571159.3376665931,
        "Argument of Periapsis(deg)": 0.011503089823870818,
        "Eccentricity": 0.0,
        "Inclination(deg)": 53.0,
        "Latitude(deg)": -51.390243234371546,
        "Longitude(deg)": 93.83685840823121,
        "Mean Anomaly(deg)": -77.49637028262833,
        "RAAN(deg)": 264.98288058744345,
        "Satellite Name": "Starlink Shell 1 1182",
        "Satellite Number": 1182,
        "Semi-Major Axis(m)": 6931778.249405717,
        "Time(s)": 330
    },
    {
        "Altitude(m)": 571090.0222533981,
        "Argument of Periapsis(deg)": 0.011851668303382053,
        "Eccentricity": 0.0,
        "Inclination(deg)": 53.0,
        "Latitude(deg)": -51.213947635016616,
        "Longitude(deg)": 94.7516715045519,
        "Mean Anomaly(deg)": -76.86953907907166,
        "RAAN(deg)": 264.9823618173659,
        "Satellite Name": "Starlink Shell 1 1182",
        "Satellite Number": 1182,
        "Semi-Major Axis(m)": 6931778.249405717,
        "Time(s)": 340
    },
    {
        "Altitude(m)": 571017.5262149287,
        "Argument of Periapsis(deg)": 0.012200246782893292,
        "Eccentricity": 0.0,
        "Inclination(deg)": 53.0,
        "Latitude(deg)": -51.02989745002316,
        "Longitude(deg)": 95.65906484569928,
        "Mean Anomaly(deg)": -76.24270787551504,
        "RAAN(deg)": 264.98184304728846,
        "Satellite Name": "Starlink Shell 1 1182",
        "Satellite Number": 1182,
        "Semi-Major Axis(m)": 6931778.249405717,
        "Time(s)": 350
    },
    {
        "Altitude(m)": 570941.8783953802,
        "Argument of Periapsis(deg)": 0.012548825262404526,
        "Eccentricity": 0.0,
        "Inclination(deg)": 53.0,
        "Latitude(deg)": -50.83820312129132,
        "Longitude(deg)": 96.55883338393676,
        "Mean Anomaly(deg)": -75.61587667195826,
        "RAAN(deg)": 264.981324277211,
        "Satellite Name": "Starlink Shell 1 1182",
        "Satellite Number": 1182,
        "Semi-Major Axis(m)": 6931778.249405717,
        "Time(s)": 360
    },
    {
        "Altitude(m)": 570863.1088860283,
        "Argument of Periapsis(deg)": 0.012897403741915765,
        "Eccentricity": 0.0,
        "Inclination(deg)": 53.0,
        "Latitude(deg)": -50.638977501403566,
        "Longitude(deg)": 97.45078772159295,
        "Mean Anomaly(deg)": -74.98904546840147,
        "RAAN(deg)": 264.9808055071335,
        "Satellite Name": "Starlink Shell 1 1182",
        "Satellite Number": 1182,
        "Semi-Major Axis(m)": 6931778.249405717,
        "Time(s)": 370
    }
]